NORAD_CAT_ID,OBJECT_NAME,OBJECT_TYPE,EPOCH,MEAN_MOTION,ECCENTRICITY,INCLINATION,RA_OF_ASC_NODE,ARG_OF_PERICENTER,MEAN_ANOMALY,BSTAR,MEAN_MOTION_DOT,MEAN_MOTION_DDOT,TLE_LINE0,TLE_LINE1,TLE_LINE2,SEMIMAJOR_AXIS,PERIOD,APOGEE,PERIGEE,DECAYED
52456.0,STARLINK-3896,PAYLOAD,2022-06-14 22:00:00,15.40649638,0.0001683,53.2175,73.589,37.1039,43.2108,-0.018812,-0.00719631,0.0,0 STARLINK-3896,1 52456U 22049F   22165.91667824 -.00719631  00000-0 -18812-1 0  9998,2 52456  53.2175  73.5890 0001683  37.1039  43.2108 15.40649638  1308,6822.328,93.467,445.341,443.045,0.0
52456.0,STARLINK-3896,PAYLOAD,2022-06-15 14:00:01,15.39628367,0.0001742,53.2172,70.45,40.7783,137.9344,-0.019388,-0.00717138,0.0,0 STARLINK-3896,1 52456U 22049F   22166.58334491 -.00717138  00000-0 -19388-1 0  9992,2 52456  53.2172  70.4500 0001742  40.7783 137.9344 15.39628367  6459,6825.344,93.529,448.398,446.02,0.0
52456.0,STARLINK-3896,PAYLOAD,2022-06-15 22:00:00,15.39117585,0.0001778,53.2174,68.8842,42.5997,184.3916,-0.019671,-0.0071556,0.0,0 STARLINK-3896,1 52456U 22049F   22166.91667824 -.00715560  00000-0 -19671-1 0  9990,2 52456  53.2174  68.8842 0001778  42.5997 184.3916 15.39117585  1302,6826.854,93.56,449.9330000000001,447.506,0.0
52456.0,STARLINK-3896,PAYLOAD,2022-06-16 02:00:01,15.38858006,0.0001581,53.2175,68.1012,47.6408,23.2624,-0.019657,-0.00709417,0.0,0 STARLINK-3896,1 52456U 22049F   22167.08334491 -.00709417  00000-0 -19657-1 0  9998,2 52456  53.2175  68.1012 0001581  47.6408  23.2624 15.38858006  1306,6827.621999999999,93.576,450.567,448.408,0.0
52456.0,STARLINK-3896,PAYLOAD,2022-06-19 14:00:01,15.33507263,0.0001608,53.2173,51.7249,39.0371,318.5826,-0.023566,-0.00714853,0.0,0 STARLINK-3896,1 52456U 22049F   22170.58334491 -.00714853  00000-0 -23566-1 0  9991,2 52456  53.2173  51.7249 0001608  39.0371 318.5826 15.33507263  1303,6843.495,93.902,466.46,464.259,0.0
52456.0,STARLINK-3896,PAYLOAD,2022-06-19 20:00:01,15.33126703,0.000187,53.2176,50.5615,34.0537,264.316,-0.023923,-0.00716841,0.0,0 STARLINK-3896,1 52456U 22049F   22170.83334491 -.00716841  00000-0 -23923-1 0  9995,2 52456  53.2176  50.5615 0001870  34.0537 264.3160 15.33126703  7110,6844.627,93.926,467.772,465.212,0.0
52456.0,STARLINK-3896,PAYLOAD,2022-06-19 22:00:00,15.33000152,0.0001949,53.2176,50.1741,29.6025,8.9406,-0.024086,-0.00718696,0.0,0 STARLINK-3896,1 52456U 22049F   22170.91667824 -.00718696  00000-0 -24086-1 0  9994,2 52456  53.2176  50.1741 0001949  29.6025   8.9406 15.33000152  1304,6845.004,93.933,468.203,465.535,0.0
52456.0,STARLINK-3896,PAYLOAD,2022-06-20 14:00:01,15.31979255,0.0001844,53.2174,47.0709,35.1407,83.4171,-0.024845,-0.00717864,0.0,0 STARLINK-3896,1 52456U 22049F   22171.58334491 -.00717864  00000-0 -24845-1 0  9998,2 52456  53.2174  47.0709 0001844  35.1407  83.4171 15.31979255  1305,6848.045,93.996,471.172,468.647,0.0
52456.0,STARLINK-3896,PAYLOAD,2022-06-20 22:00:00,15.314688,0.0002107,53.2174,45.5237,32.4052,125.239,-0.025191,-0.0071643,0.0,0 STARLINK-3896,1 52456U 22049F   22171.91667824 -.00716430  00000-0 -25191-1 0  9997,2 52456  53.2174  45.5237 0002107  32.4052 125.2390 15.31468800  7272,6849.566,94.027,472.874,469.98800000000006,0.0
52456.0,STARLINK-3896,PAYLOAD,2022-06-21 14:00:01,15.30449552,0.0001713,53.2173,42.4275,45.4539,188.5275,-0.026064,-0.00717814,0.0,0 STARLINK-3896,1 52456U 22049F   22172.58334491 -.00717814  00000-0 -26064-1 0  9999,2 52456  53.2173  42.4275 0001713  45.4539 188.5275 15.30449552  1309,6852.607,94.09,475.646,473.298,0.0
52456.0,STARLINK-3896,PAYLOAD,2022-06-21 22:00:00,15.29938607,0.0001909,53.2175,40.8841,38.1267,233.1028,-0.026399,-0.00715761,0.0,0 STARLINK-3896,1 52456U 22049F   22172.91667824 -.00715761  00000-0 -26399-1 0  9995,2 52456  53.2175  40.8841 0001909  38.1267 233.1028 15.29938607  1301,6854.1330000000025,94.121,477.306,474.689,0.0
52456.0,STARLINK-3896,PAYLOAD,2022-06-22 00:00:02,15.29813158,0.0001867,53.2176,40.4982,33.3419,337.167,-0.026636,-0.00719095,0.0,0 STARLINK-3896,1 52456U 22049F   22173.00002315 -.00719095  00000-0 -26636-1 0  9992,2 52456  53.2176  40.4982 0001867  33.3419 337.1670 15.29813158  7445,6854.507,94.129,477.652,475.093,0.0
52456.0,STARLINK-3896,PAYLOAD,2022-06-22 14:00:01,15.28917543,0.0001597,53.2175,37.7952,41.5862,302.3045,-0.027176,-0.00713974,0.0,0 STARLINK-3896,1 52456U 22049F   22173.58334491 -.00713974  00000-0 -27176-1 0  9998,2 52456  53.2175  37.7952 0001597  41.5862 302.3045 15.28917543  1304,6857.184,94.184,480.144,477.954,0.0
52456.0,STARLINK-3896,PAYLOAD,2022-06-22 22:00:00,15.28411083,0.0001749,53.2175,36.2553,37.5357,341.7631,-0.027839,-0.00727981,0.0,0 STARLINK-3896,1 52456U 22049F   22173.91667824 -.00727981  00000-0 -27839-1 0  9993,2 52456  53.2175  36.2553 0001749  37.5357 341.7631 15.28411083  1304,6858.699000000001,94.215,481.763,479.364,0.0
52456.0,STARLINK-3896,PAYLOAD,2022-06-23 06:00:00,15.27900032,0.0001496,53.2173,34.7142,45.7041,8.3937,-0.028206,-0.0072618,0.0,0 STARLINK-3896,1 52456U 22049F   22174.25001157 -.00726180  00000-0 -28206-1 0  9991,2 52456  53.2173  34.7142 0001496  45.7041   8.3937 15.27900032  7632,6860.228,94.247,483.119,481.067,0.0
52456.0,STARLINK-3896,PAYLOAD,2022-06-23 14:00:01,15.27388561,0.0001695,53.2175,33.1736,40.5321,47.7518,-0.028532,-0.00723377,0.0,0 STARLINK-3896,1 52456U 22049F   22174.58334491 -.00723377  00000-0 -28532-1 0  9994,2 52456  53.2175  33.1736 0001695  40.5321  47.7518 15.27388561  1308,6861.759,94.279,484.787,482.461,0.0
52456.0,STARLINK-3896,PAYLOAD,2022-06-23 22:00:00,15.26880521,0.0002015,53.2174,31.6375,33.986,87.8682,-0.029121,-0.00726749,0.0,0 STARLINK-3896,1 52456U 22049F   22174.91667824 -.00726749  00000-0 -29121-1 0  9991,2 52456  53.2174  31.6375 0002015  33.9860  87.8682 15.26880521  1309,6863.281,94.31,486.529,483.763,0.0
52456.0,STARLINK-3896,PAYLOAD,2022-06-24 06:00:02,15.26369754,0.0001575,53.2173,30.0996,51.2323,103.646,-0.029516,-0.00725287,0.0,0 STARLINK-3896,1 52456U 22049F   22175.25002315 -.00725287  00000-0 -29516-1 0  9991,2 52456  53.2173  30.0996 0001575  51.2323 103.6460 15.26369754  7786,6864.812,94.341,487.759,485.596,0.0
52456.0,STARLINK-3896,PAYLOAD,2022-06-24 14:00:01,15.258595,0.0001733,53.2175,28.563,46.667,140.4947,-0.029926,-0.00724162,0.0,0 STARLINK-3896,1 52456U 22049F   22175.58334491 -.00724162  00000-0 -29926-1 0  9996,2 52456  53.2175  28.5630 0001733  46.6670 140.4947 15.25859500  1307,6866.343000000003,94.373,489.398,487.018,0.0
52456.0,STARLINK-3896,PAYLOAD,2022-06-24 22:00:01,15.25348857,0.0001818,53.2174,27.0301,45.2719,173.6865,-0.030359,-0.00723439,0.0,0 STARLINK-3896,1 52456U 22049F   22175.91668981 -.00723439  00000-0 -30359-1 0  9995,2 52456  53.2174  27.0301 0001818  45.2719 173.6865 15.25348857  1303,6867.875,94.405,490.989,488.492,0.0
52456.0,STARLINK-3896,PAYLOAD,2022-06-25 14:00:01,15.24328639,0.0001587,53.2176,23.9628,50.7681,229.7573,-0.0312519999999999,-0.0072223999999999,0.0,0 STARLINK-3896,1 52456U 22049F   22176.58334491 -.00722240  00000-0 -31252-1 0  9997,2 52456  53.2176  23.9628 0001587  50.7681 229.7573 15.24328639  7999,6870.939,94.468,493.895,491.714,0.0
52456.0,STARLINK-3896,PAYLOAD,2022-06-25 22:00:00,15.23819809,0.0001703,53.2175,22.4339,44.0593,266.3601,-0.031847,-0.00724689,0.0,0 STARLINK-3896,1 52456U 22049F   22176.91667824 -.00724689  00000-0 -31847-1 0  9992,2 52456  53.2175  22.4339 0001703  44.0593 266.3601 15.23819809  1300,6872.469,94.499,495.504,493.163,0.0
52456.0,STARLINK-3896,PAYLOAD,2022-06-26 14:00:01,15.22798139,0.0001491,53.2176,19.3738,47.9832,320.4541,-0.032679,-0.0072149,0.0,0 STARLINK-3896,1 52456U 22049F   22177.58335648 -.00721490  00000-0 -32679-1 0  9993,2 52456  53.2176  19.3738 0001491  47.9832 320.4541 15.22798139  8146,6875.542,94.563,498.432,496.382,0.0
52456.0,STARLINK-3896,PAYLOAD,2022-06-26 22:00:00,15.22290764,0.0001721999999999,53.2175,17.8483,39.592,356.8371,-0.033419,-0.00726461,0.0,0 STARLINK-3896,1 52456U 22049F   22177.91667824 -.00726461  00000-0 -33419-1 0  9990,2 52456  53.2175  17.8483 0001722  39.5920 356.8371 15.22290764  1303,6877.07,94.594,500.119,497.751,0.0
52456.0,STARLINK-3896,PAYLOAD,2022-06-27 14:00:01,15.21268295,0.000165,53.2176,14.7953,43.8766,46.8305,-0.034216,-0.00721942,0.0,0 STARLINK-3896,1 52456U 22049F   22178.58334491 -.00721942  00000-0 -34216-1 0  9990,2 52456  53.2176  14.7953 0001650  43.8766  46.8305 15.21268295  8299,6880.151,94.658,503.151,500.881,0.0
52456.0,STARLINK-3896,PAYLOAD,2022-06-27 22:00:00,15.20759482,0.00018,53.2175,13.2734,41.9837,74.9407,-0.034847,-0.00724179,0.0,0 STARLINK-3896,1 52456U 22049F   22178.91667824 -.00724179  00000-0 -34847-1 0  9991,2 52456  53.2175  13.2734 0001800  41.9837  74.9407 15.20759482  1306,6881.685,94.69,504.789,502.312,0.0
52456.0,STARLINK-3896,PAYLOAD,2022-06-28 14:00:01,15.19738536,0.0001725,53.2177,10.2277,47.5706,119.9543,-0.035797,-0.00722123,0.0,0 STARLINK-3896,1 52456U 22049F   22179.58334491 -.00722123  00000-0 -35797-1 0  9998,2 52456  53.2177  10.2277 0001725  47.5706 119.9543 15.19738536  8448,6884.767,94.753,507.82,505.445,0.0
52456.0,STARLINK-3896,PAYLOAD,2022-06-28 22:00:00,15.19227822,0.0001773,53.2175,8.7092,48.0402,143.8644,-0.036266,-0.00720856,0.0,0 STARLINK-3896,1 52456U 22049F   22179.91667824 -.00720856  00000-0 -36266-1 0  9997,2 52456  53.2175   8.7092 0001773  48.0402 143.8644 15.19227822  1302,6886.31,94.785,509.396,506.954,0.0
52456.0,STARLINK-3896,PAYLOAD,2022-06-29 14:00:01,15.18208379,0.0001631999999999,53.2176,5.6708,51.9079,186.9726,-0.037399,-0.00721605,0.0,0 STARLINK-3896,1 52456U 22049F   22180.58334491 -.00721605  00000-0 -37399-1 0  9994,2 52456  53.2176   5.6708 0001632  51.9079 186.9726 15.18208379  1304,6889.392,94.849,512.382,510.133,0.0
52456.0,STARLINK-3896,PAYLOAD,2022-06-29 22:00:00,15.17697166,0.0001669,53.2175,4.1557,49.3506,212.0715,-0.03783,-0.00719368,0.0,0 STARLINK-3896,1 52456U 22049F   22180.91667824 -.00719368  00000-0 -37830-1 0  9993,2 52456  53.2175   4.1557 0001669  49.3506 212.0715 15.17697166  8654,6890.939,94.881,513.9540000000002,511.654,0.0
